[Satellite]
VERSION=1.1
NAME=MOLNIYA 1-S
NICKNAME=MOLNIYA 1-S
TLE1=1 07392U 74060A   17185.75288125 -.00000344  00000-0  00000-0 0  9990
TLE2=2 07392   9.1414 307.3142 0008369 171.9642 182.6666  1.00269245101385
